#dP2022  5 24  0  0  0.00000000      96 __u+U ITR00 FIT  IAC
## 2211 172800.00000000   900.00000000 59723 0.0000000000000
+  117   C06C07C08C09C10C11C12C13C14C16C19C20C21C22C23C24C25
+        C26C27C28C29C30C32C33C34C35C36C37C38C39C40C41C42C43
+        C44C45C46E01E02E03E04E05E07E08E09E10E11E12E13E14E15
+        E18E19E21E24E25E26E27E30E31E33E34E36G01G02G03G04G05
+        G06G07G08G09G10G11G12G13G14G15G16G17G18G19G20G21G22
+        G23G24G25G26G27G28G29G30G31G32J02J03R01R02R03R04R05
+        R07R08R09R11R12R13R14R15R17R18R19R20R21R22R24  0  0
++         8  7  7  7  7  8  9  6  9  8  6  6  6  6  7  8  7
++         7  8  9  7  7  8  8  6  7  6  8  8  7  8  7  8  6
++         7  7  6  7  6  6  6  6  6  6  6  5  6  6  5  6  6
++         6  6  7  5  5  7  5  5  6  6  6  6  6  6  6  6  6
++         6  7  6  6  6  6  7  6  7  5  6  6  5  5  5  6  6
++         7  6  6  6  5  5  5  7  6  6  6  8  6  5  7  6  6
++         6  5  7  6  6  8  6  8  7  7  6  8  6  7  6  0  0
%c M  cc GPS ccc cccc cccc cccc cccc ccccc ccccc ccccc ccccc
%c cc cc ccc ccc cccc cccc cccc cccc ccccc ccccc ccccc ccccc
%f  0.0000000  0.000000000  0.00000000000  0.000000000000000
%f  0.0000000  0.000000000  0.00000000000  0.000000000000000
%i    0    0    0    0      0      0      0      0         0
%i    0    0    0    0      0      0      0      0         0
/* INFORMATION & ANALYSIS CENTER (IAC)      ULTRA-RAPID DATA
/* S/V CLOCKS ARE ALIGNED TO GNSS TIME                      
/* G:C1WC2W R:C1PC2P E:C1XC5X C:C2IC6I J:C1CC2S             
/* PCV:IGS14_2196 OL/AL:FES2004  NONE     YN ORB:CoN CLK:CoN
*  2022 05 24 16 15  0.00000000
PC06   -340.356553  31535.474689  28117.334436     49.032402
PC07 -15967.052523  28091.563951 -27169.719385   -208.496315
PC08 -13038.711339  40016.215963    686.064971    329.145530
PC09   5935.584258  35284.250196  23060.411123   -817.849115
PC10  -7402.933570  28292.536464 -30255.209996    130.536036
PC11  16973.908119  -2684.814466  22037.109660    372.032358
PC12  21862.436207  13914.518647  10364.750650   -611.004222
PC13  -7515.941399  40634.595535   7735.037925    -23.607294
PC14  26079.273241  -9015.610316  -3912.302094    482.650732
PC16  -3071.298819  29372.654835  30372.955042    134.296920
PC19 -20561.301670  13936.873037  12773.729716    866.654065
PC20 -27395.622091   3896.042292  -3740.103770   -928.435152
PC21  18102.393573   9232.214815  19135.315749   -351.780278
PC22  -1601.692633  16335.923723  22578.070654   -968.098383
PC23   3328.993325 -26931.452117   6512.367541   -930.642602
PC24  17153.455475  -2302.643782 -21901.235927   -968.749452
PC25  13761.843164 -22010.217651 -10273.680994   -731.972340
PC26  10674.941091  15882.587039 -20309.574426    733.279560
PC27 -19707.354376 -19661.136841  -1850.759680    728.217365
PC28  -7083.639539 -22711.434883  14586.056711     70.506324
PC29  -9878.151668  12596.742920 -22869.664671    559.022812
PC30 -21572.714069  -5097.851023 -16949.610711    498.949777
PC32 -18182.772427  -9084.640614 -19107.514709   -964.322993
PC33  20527.012651 -14012.337758 -12658.656141   -966.385139
PC34  21283.091331   4202.415171  17551.063555   -396.333854
PC35   6922.357273  22292.963120 -15331.294729    288.854427
PC36 -14499.932866  21294.027647  10751.761916   -965.020992
PC37  -9584.029599 -17224.854851  19776.324442   -909.277645
PC38 -16635.118742  38039.374023  -6909.199722    234.423567
PC39  -7369.876794  25427.944258  32890.816231     34.976815
PC40 -22908.472819  21919.317587 -27906.872314    271.722111
PC41   2064.237585 -16414.246169 -22416.941199   -966.649394
PC42  27299.281350  -3142.035280   4834.954082   -968.680108
PC43  10612.312993 -12041.497213  22814.069647   -922.227639
PC44  20311.756208  19095.461848   1591.280193    670.035628
PC45  -3147.735538  26870.839205  -6799.015083    765.436036
PC46 -17247.308184   4032.540443  21560.740019   -341.886797
PE01  10630.396475 -23552.509606  14439.798795   -482.779146
PE02 -10467.694515  23531.318387 -14581.008152    301.238623
PE03   -656.420161  17413.035654  23930.991810   -561.611085
PE04 -19667.321855 -16548.734207 -14669.956082  -1034.955713
PE05 -20975.959268   8047.498356  19283.468697   -178.613607
PE07  28795.785737   5871.474045  -3475.359274   -671.702894
PE08  19939.580396  16327.979186  14555.187702   -534.644841
PE09 -28828.210609  -5713.808220   3612.397271   -529.446539
PE10 -16050.193126 -17833.328907 -17348.413927   -515.118681
PE11 -17178.360305  -7008.619207 -23074.353481   3571.558286
PE12 -12396.157048 -25257.304810  -9168.490412   4597.676332
PE13  17142.207372   7810.248764  22832.474936    428.880815
PE14 -27885.041895   1248.606115 -16270.470232  -1828.150557
PE15  12358.054908  25342.492423   9027.043885    743.685491
PE18  21286.787364   1397.613999  10261.158708  -1410.986954
PE19   3435.601919 -16616.568398 -24241.431860  -5208.799664
PE21  22536.228492 -19019.246851  -2569.282716   -736.082590
PE24 -21882.747890   2036.129570  19805.453927   -632.662863
PE25 -22634.967397  18860.905768   2838.248858   -575.096441
PE26  11541.068316 -15137.583907  22664.179082  -1182.140319
PE27  22335.887157  -3266.438724 -19149.110412   -306.185509
PE30   8099.780453  15060.232976 -24169.381974   -536.526736
PE31  -8993.725601 -14279.003266  24324.209681   -497.146557
PE33   -308.412665 -27839.441292  10031.831961   -456.318239
PE34    480.762284  27905.793504  -9867.858067   -518.677527
PE36 -11825.912362  14194.519251 -23133.296442   -378.245235
PG01  13407.199595  -7213.745244  21412.072341    355.981865
PG02 -14091.100729 -15623.584854 -15467.858718   -653.152426
PG03  22776.211220 -12081.467132   6010.953607   -255.660541
PG04  21601.145761  -1826.545793 -15393.391979   -164.142396
PG05 -19680.349521   -157.310689 -18071.835480    -83.015835
PG06  -5797.686277 -25526.994061  -4174.451264    315.931782
PG07   6474.896873 -21956.606286 -12628.436150    322.204034
PG08  25250.308037   4352.302931   7622.432843    -69.308019
PG09  13001.007500 -10582.026047 -20671.891537   -334.205858
PG10  -4671.901560  18941.817595  18032.209765   -427.075753
PG11 -12569.944234 -16702.338595 -16398.438546    -21.223928
PG12 -23485.293731   7537.433542   9426.652997   -220.441162
PG13 -23054.464165 -13369.292894    385.684703    317.388246
PG14   6579.333708 -19294.065132  16975.110896   -109.599910
PG15 -25456.999841  -1215.374807   7609.915606    -58.710521
PG16  16511.659381   6118.775408 -20291.556850   -503.581505
PG17  -4269.937776 -17267.020372  20138.567194    616.608490
PG18  -7070.988202  21657.491852 -13570.812805    161.422907
PG19 -12343.916467 -18235.958097  14742.926659    161.564859
PG20 -12289.080386  -9669.560520 -21454.289176    514.183211
PG21  16161.219825   4082.300505  21448.086592    161.198203
PG22  14492.774859  18184.191998  13414.715092    264.395013
PG23 -14477.669021  20024.876753   9590.309630    -23.932074
PG24 -15347.120845   3019.818155  21165.906943    235.075239
PG25 -19237.655315  17815.995312  -3465.057500    328.779642
PG26   7486.440347  14115.385507 -21275.894676    207.810810
PG27  23020.717947  13000.078606  -4440.290604    207.650316
PG28  -1962.068988 -16184.765767  21521.769584    351.970691
PG29 -13686.541191   8812.961546 -21054.701990   -517.003455
PG30    310.008672 -26077.297755  -4173.881003   -529.079222
PG31   7325.082396  24357.981203  -6886.858744   -178.957726
PG32   7777.708764  17442.716367  18681.966262   -134.591027
PJ02 -34661.033431  24135.046792   4345.328522     -0.255777
PJ03 -20271.299412  22073.879955 -25076.460415     -2.372544
PR01   7071.879715  10230.707044  22274.905596      9.060801
PR02  23252.886157   3745.361181   9918.309163    519.326423
PR03  23954.307869  -4676.408781  -7457.136820     57.211618
PR04  11321.133571 -10074.531955 -20486.991019    143.069349
PR05  -7479.759095 -10079.786532 -22185.822272     93.422036
PR07 -23569.812261   5042.469706   8325.539288     35.510293
PR08 -11075.593218  10288.039998  20600.997027    -65.305156
PR09 -10877.568866  -3430.560593  22836.316074     56.780488
PR11 -11234.469775  22909.395060   -206.389210     38.168501
PR12   -409.478714  18872.427467 -17122.215926     18.598767
PR13   9948.849244   4749.317197 -23016.674245    -22.746373
PR14  15159.957621 -13671.291760 -15270.582179     25.554156
PR15  11096.666115 -22938.392216   1137.503918     95.911256
PR17  11585.018783   -986.881694  22700.863435    528.870656
PR18    879.115778 -15640.284167  20120.492186    117.949046
PR19  -9070.320010 -22449.771566   8019.320047   -190.174277
PR20 -15637.920162 -16023.467886 -12178.862627    -71.215434
PR21 -10779.115731   2302.554355 -23012.674913   -303.854293
PR22   -264.695665  16308.729739 -19669.605457   -185.192143
PR24  16276.748114  15010.161367  12666.579755     95.313978
EOF
